{
  "links" : {
    "next" : "https://api.nasa.gov/neo/rest/v1/feed?start_date=2009-11-16&end_date=2009-11-16&detailed=true&api_key=t0TVs3DtDT2H8Oy2Zy8m2eVrNsAVKAexjcZXUckd",
    "prev" : "https://api.nasa.gov/neo/rest/v1/feed?start_date=2009-11-14&end_date=2009-11-14&detailed=true&api_key=t0TVs3DtDT2H8Oy2Zy8m2eVrNsAVKAexjcZXUckd",
    "self" : "https://api.nasa.gov/neo/rest/v1/feed?start_date=2009-11-15&end_date=2009-11-15&detailed=true&api_key=t0TVs3DtDT2H8Oy2Zy8m2eVrNsAVKAexjcZXUckd"
  },
  "element_count" : 7,
  "near_earth_objects" : {
    "2009-11-15" : [ {
      "links" : {
        "self" : "https://api.nasa.gov/neo/rest/v1/neo/3409964?api_key=t0TVs3DtDT2H8Oy2Zy8m2eVrNsAVKAexjcZXUckd"
      },
      "neo_reference_id" : "3409964",
      "name" : "(2008 JG)",
      "nasa_jpl_url" : "http://ssd.jpl.nasa.gov/sbdb.cgi?sstr=3409964",
      "absolute_magnitude_h" : 20.8,
      "estimated_diameter" : {
        "kilometers" : {
          "estimated_diameter_min" : 0.1838886721,
          "estimated_diameter_max" : 0.411187571
        },
        "meters" : {
          "estimated_diameter_min" : 183.8886720703,
          "estimated_diameter_max" : 411.1875710413
        },
        "miles" : {
          "estimated_diameter_min" : 0.1142630881,
          "estimated_diameter_max" : 0.2555000322
        },
        "feet" : {
          "estimated_diameter_min" : 603.309310875,
          "estimated_diameter_max" : 1349.040630575
        }
      },
      "is_potentially_hazardous_asteroid" : true,
      "close_approach_data" : [ {
        "close_approach_date" : "2009-11-15",
        "epoch_date_close_approach" : 1258272000000,
        "relative_velocity" : {
          "kilometers_per_second" : "7.3652616359",
          "kilometers_per_hour" : "26514.9418891868",
          "miles_per_hour" : "16475.3537533117"
        },
        "miss_distance" : {
          "astronomical" : "0.2439370935",
          "lunar" : "94.8915252686",
          "kilometers" : "36492468",
          "miles" : "22675370"
        },
        "orbiting_body" : "Earth"
      } ],
      "orbital_data" : {
        "orbit_id" : "32",
        "orbit_determination_date" : "2017-04-06 09:03:32",
        "orbit_uncertainty" : "2",
        "minimum_orbit_intersection" : ".0497576",
        "jupiter_tisserand_invariant" : "5.797",
        "epoch_osculation" : "2458000.5",
        "eccentricity" : ".2962061287988718",
        "semi_major_axis" : "1.052079402640927",
        "inclination" : "7.906473496389842",
        "ascending_node_longitude" : "128.8405407963474",
        "orbital_period" : "394.1587791697582",
        "perihelion_distance" : ".7404470355956286",
        "perihelion_argument" : "242.293197578416",
        "aphelion_distance" : "1.363711769686226",
        "perihelion_time" : "2457881.085681769947",
        "mean_anomaly" : "109.0655767033018",
        "mean_motion" : ".9133375152985072",
        "equinox" : "J2000"
      }
    }, {
      "links" : {
        "self" : "https://api.nasa.gov/neo/rest/v1/neo/3477702?api_key=t0TVs3DtDT2H8Oy2Zy8m2eVrNsAVKAexjcZXUckd"
      },
      "neo_reference_id" : "3477702",
      "name" : "(2009 WP6)",
      "nasa_jpl_url" : "http://ssd.jpl.nasa.gov/sbdb.cgi?sstr=3477702",
      "absolute_magnitude_h" : 26.8,
      "estimated_diameter" : {
        "kilometers" : {
          "estimated_diameter_min" : 0.0116025908,
          "estimated_diameter_max" : 0.0259441818
        },
        "meters" : {
          "estimated_diameter_min" : 11.6025908209,
          "estimated_diameter_max" : 25.9441817907
        },
        "miles" : {
          "estimated_diameter_min" : 0.0072095135,
          "estimated_diameter_max" : 0.0161209622
        },
        "feet" : {
          "estimated_diameter_min" : 38.066244069,
          "estimated_diameter_max" : 85.1187093863
        }
      },
      "is_potentially_hazardous_asteroid" : false,
      "close_approach_data" : [ {
        "close_approach_date" : "2009-11-15",
        "epoch_date_close_approach" : 1258272000000,
        "relative_velocity" : {
          "kilometers_per_second" : "25.3396799841",
          "kilometers_per_hour" : "91222.847942927",
          "miles_per_hour" : "56682.3301565371"
        },
        "miss_distance" : {
          "astronomical" : "0.00176244",
          "lunar" : "0.6855891347",
          "kilometers" : "263657.28125",
          "miles" : "163829.03125"
        },
        "orbiting_body" : "Earth"
      } ],
      "orbital_data" : {
        "orbit_id" : "7",
        "orbit_determination_date" : "2017-04-06 08:59:07",
        "orbit_uncertainty" : "9",
        "minimum_orbit_intersection" : ".000967268",
        "jupiter_tisserand_invariant" : "5.226",
        "epoch_osculation" : "2455154.5",
        "eccentricity" : ".7414537065285606",
        "semi_major_axis" : "1.130932438265825",
        "inclination" : "2.776929303081851",
        "ascending_node_longitude" : "54.46489901398724",
        "orbital_period" : "439.2921254693568",
        "perihelion_distance" : ".2923983900802465",
        "perihelion_argument" : "227.9502229581669",
        "aphelion_distance" : "1.969466486451403",
        "perihelion_time" : "2455104.228393570285",
        "mean_anomaly" : "41.19759327659477",
        "mean_motion" : ".8195002348730062",
        "equinox" : "J2000"
      }
    }, {
      "links" : {
        "self" : "https://api.nasa.gov/neo/rest/v1/neo/3763272?api_key=t0TVs3DtDT2H8Oy2Zy8m2eVrNsAVKAexjcZXUckd"
      },
      "neo_reference_id" : "3763272",
      "name" : "(2016 VY)",
      "nasa_jpl_url" : "http://ssd.jpl.nasa.gov/sbdb.cgi?sstr=3763272",
      "absolute_magnitude_h" : 22.5,
      "estimated_diameter" : {
        "kilometers" : {
          "estimated_diameter_min" : 0.0840533402,
          "estimated_diameter_max" : 0.1879489824
        },
        "meters" : {
          "estimated_diameter_min" : 84.0533402073,
          "estimated_diameter_max" : 187.9489824394
        },
        "miles" : {
          "estimated_diameter_min" : 0.0522283081,
          "estimated_diameter_max" : 0.1167860472
        },
        "feet" : {
          "estimated_diameter_min" : 275.7655606856,
          "estimated_diameter_max" : 616.6305395464
        }
      },
      "is_potentially_hazardous_asteroid" : false,
      "close_approach_data" : [ {
        "close_approach_date" : "2009-11-15",
        "epoch_date_close_approach" : 1258272000000,
        "relative_velocity" : {
          "kilometers_per_second" : "24.6791051987",
          "kilometers_per_hour" : "88844.7787152001",
          "miles_per_hour" : "55204.6904188975"
        },
        "miss_distance" : {
          "astronomical" : "0.3535062719",
          "lunar" : "137.5139312744",
          "kilometers" : "52883784",
          "miles" : "32860460"
        },
        "orbiting_body" : "Earth"
      } ],
      "orbital_data" : {
        "orbit_id" : "8",
        "orbit_determination_date" : "2017-04-06 08:22:31",
        "orbit_uncertainty" : "6",
        "minimum_orbit_intersection" : ".103217",
        "jupiter_tisserand_invariant" : "3.904",
        "epoch_osculation" : "2458000.5",
        "eccentricity" : ".4820552780736617",
        "semi_major_axis" : "1.746778580898183",
        "inclination" : "24.31093523278074",
        "ascending_node_longitude" : "227.762691597467",
        "orbital_period" : "843.2477941175615",
        "perihelion_distance" : ".9047347463501932",
        "perihelion_argument" : "112.5382182574627",
        "aphelion_distance" : "2.588822415446173",
        "perihelion_time" : "2457640.274880542725",
        "mean_anomaly" : "153.7875864120427",
        "mean_motion" : ".4269207728870863",
        "equinox" : "J2000"
      }
    } ]
  }
}